NORAD_CAT_ID,OBJECT_NAME,OBJECT_TYPE,EPOCH,MEAN_MOTION,ECCENTRICITY,INCLINATION,RA_OF_ASC_NODE,ARG_OF_PERICENTER,MEAN_ANOMALY,BSTAR,MEAN_MOTION_DOT,MEAN_MOTION_DDOT,TLE_LINE0,TLE_LINE1,TLE_LINE2,SEMIMAJOR_AXIS,PERIOD,APOGEE,PERIGEE,DECAYED
53176.0,STARLINK-4294,PAYLOAD,2022-08-18 22:00:00,15.73232284,0.0003221,53.2155,246.8303,10.8781,48.622,-4.7007e-05,-7.226e-05,0.0,0 STARLINK-4294,1 53176U 22083AW  22230.91667824 -.00007226  00000-0 -47007-4 0  9990,2 53176  53.2155 246.8303 0003221  10.8781  48.6220 15.73232284  1307,6727.803000000001,91.531,351.835,347.501,0.0
53176.0,STARLINK-4294,PAYLOAD,2022-08-19 04:00:01,15.73255139,0.000325,53.2155,245.594,9.5897,26.6972,-0.00077185,-0.00107861,0.0,0 STARLINK-4294,1 53176U 22083AW  22231.16668981 -.00107861  00000-0 -77185-3 0  9998,2 53176  53.2155 245.5940 0003250   9.5897  26.6972 15.73255139  5774,6727.738,91.53,351.789,347.416,0.0
53176.0,STARLINK-4294,PAYLOAD,2022-08-19 14:00:01,15.73168131,0.0003469,53.2146,243.5331,9.0722,228.3084,-0.00024528,-0.0003487,0.0,0 STARLINK-4294,1 53176U 22083AW  22231.58334491 -.00034870  00000-0 -24528-3 0  9992,2 53176  53.2146 243.5331 0003469   9.0722 228.3084 15.73168131  1305,6727.986,91.535,352.185,347.517,0.0
53176.0,STARLINK-4294,PAYLOAD,2022-08-19 20:00:01,15.73107241,0.0003262,53.2149,242.2945,11.6633,202.3712,0.00049328,0.00068916,0.0,0 STARLINK-4294,1 53176U 22083AW  22231.83334491  .00068916  00000-0  49328-3 0  9991,2 53176  53.2149 242.2945 0003262  11.6633 202.3712 15.73107241  5888,6728.16,91.539,352.219,347.83,0.0
53176.0,STARLINK-4294,PAYLOAD,2022-08-19 22:00:00,15.73104564,0.0003216,53.2147,241.8819,12.5769,313.6696,0.000676,0.00094957,0.0,0 STARLINK-4294,1 53176U 22083AW  22231.91667824  .00094957  00000-0  67600-3 0  9996,2 53176  53.2147 241.8819 0003216  12.5769 313.6696 15.73104564  1305,6728.167,91.539,352.196,347.869,0.0
53176.0,STARLINK-4294,PAYLOAD,2022-08-20 12:00:00,15.73141694,0.0003276999999999,53.2163,238.993,12.7478,19.0367,0.00051009,0.00071412,0.0,0 STARLINK-4294,1 53176U 22083AW  22232.50001157  .00071412  00000-0  51009-3 0  9990,2 53176  53.2163 238.9930 0003277  12.7478  19.0367 15.73141694  5985,6728.061,91.537,352.131,347.722,0.0
53176.0,STARLINK-4294,PAYLOAD,2022-08-20 14:00:01,15.73145568,0.0003218,53.2164,238.5796,12.1079,131.8978,0.0005848,0.00082081,0.0,0 STARLINK-4294,1 53176U 22083AW  22232.58334491  .00082081  00000-0  58480-3 0  9992,2 53176  53.2164 238.5796 0003218  12.1079 131.8978 15.73145568  1305,6728.05,91.536,352.08,347.75,0.0
53176.0,STARLINK-4294,PAYLOAD,2022-08-20 22:00:00,15.73224339,0.0003251,53.2149,236.9337,14.0427,218.8965,0.00019418,0.0002675,0.0,0 STARLINK-4294,1 53176U 22083AW  22232.91667824  .00026750  00000-0  19418-3 0  9997,2 53176  53.2149 236.9337 0003251  14.0427 218.8965 15.73224339  6059,6727.826,91.532,351.87800000000016,347.504,0.0
53176.0,STARLINK-4294,PAYLOAD,2022-08-21 06:00:00,15.73202709,0.0003446,53.2146,235.2858,12.9244,308.9793,-0.00010655,-0.00015556,0.0,0 STARLINK-4294,1 53176U 22083AW  22233.25001157 -.00015556  00000-0 -10655-3 0  9994,2 53176  53.2146 235.2858 0003446  12.9244 308.9793 15.73202709  6109,6727.887,91.533,352.071,347.434,0.0
53176.0,STARLINK-4294,PAYLOAD,2022-08-21 14:00:01,15.73234889,0.0003461999999999,53.2139,233.6364,9.9902,40.8371,-0.0005332,-0.00074931,0.0,0 STARLINK-4294,1 53176U 22083AW  22233.58334491 -.00074931  00000-0 -53320-3 0  9998,2 53176  53.2139 233.6364 0003462   9.9902  40.8371 15.73234889  1305,6727.795999999999,91.531,351.99,347.332,0.0
53176.0,STARLINK-4294,PAYLOAD,2022-08-21 22:00:00,15.73154838,0.0003151999999999,53.2141,231.9851,10.3476,129.4161,0.00057042,0.00080059,0.0,0 STARLINK-4294,1 53176U 22083AW  22233.91667824  .00080059  00000-0  57042-3 0  9995,2 53176  53.2141 231.9851 0003152  10.3476 129.4161 15.73154838  1304,6728.024,91.536,352.01,347.76800000000014,0.0
53176.0,STARLINK-4294,PAYLOAD,2022-08-22 04:00:00,15.73208258,0.0003282,53.2143,230.7493,10.5419,105.887,2.4271e-05,2.786e-05,0.0,0 STARLINK-4294,1 53176U 22083AW  22234.16667824  .00002786  00000-0  24271-4 0  9993,2 53176  53.2143 230.7493 0003282  10.5419 105.8870 15.73208258  6258,6727.871999999999,91.533,351.945,347.529,0.0
53176.0,STARLINK-4294,PAYLOAD,2022-08-22 12:00:00,15.73216012,0.0003449,53.2141,229.1007,8.0351,197.3307,-0.00023809,-0.00033938,0.0,0 STARLINK-4294,1 53176U 22083AW  22234.50001157 -.00033938  00000-0 -23809-3 0  9992,2 53176  53.2141 229.1007 0003449   8.0351 197.3307 15.73216012  1300,6727.85,91.532,352.035,347.394,0.0
53176.0,STARLINK-4294,PAYLOAD,2022-08-22 20:00:01,15.73153071,0.0003246,53.2143,227.4492,8.0765,286.226,0.0005603,0.00078609,0.0,0 STARLINK-4294,1 53176U 22083AW  22234.83334491  .00078609  00000-0  56030-3 0  9992,2 53176  53.2143 227.4492 0003246   8.0765 286.2260 15.73153071  6356,6728.029,91.536,352.07800000000015,347.71,0.0
53176.0,STARLINK-4294,PAYLOAD,2022-08-22 22:00:00,15.73167324,0.000322,53.2143,227.0366,9.3656,37.1579,0.00049774,0.00069731,0.0,0 STARLINK-4294,1 53176U 22083AW  22234.91667824  .00069731  00000-0  49774-3 0  9993,2 53176  53.2143 227.0366 0003220   9.3656  37.1579 15.73167324  1309,6727.988,91.535,352.02,347.68699999999984,0.0
53176.0,STARLINK-4294,PAYLOAD,2022-08-23 04:00:00,15.73215743,0.0003378,53.2141,225.8009,10.0668,13.1342,-7.0336e-05,-0.00010492,0.0,0 STARLINK-4294,1 53176U 22083AW  22235.16667824 -.00010492  00000-0 -70336-4 0  9992,2 53176  53.2141 225.8009 0003378  10.0668  13.1342 15.73215743  6400,6727.85,91.532,351.98800000000006,347.4430000000001,0.0
53176.0,STARLINK-4294,PAYLOAD,2022-08-23 14:00:01,15.73267278,0.0003396999999999,53.2133,223.7391,9.0999,215.2714,-0.0006663,-0.00093406,0.0,0 STARLINK-4294,1 53176U 22083AW  22235.58334491 -.00093406  00000-0 -66630-3 0  9996,2 53176  53.2133 223.7391 0003397   9.0999 215.2714 15.73267278  1300,6727.703,91.529,351.85400000000016,347.283,0.0
53176.0,STARLINK-4294,PAYLOAD,2022-08-23 22:00:01,15.73175374,0.0003151999999999,53.2136,222.0878,8.6411,304.7707,0.00040577,0.00056661,0.0,0 STARLINK-4294,1 53176U 22083AW  22235.91668981  .00056661  00000-0  40577-3 0  9999,2 53176  53.2136 222.0878 0003152   8.6411 304.7707 15.73175374  1309,6727.965,91.535,351.951,347.71,0.0
53176.0,STARLINK-4294,PAYLOAD,2022-08-24 14:00:01,15.7325502,0.0003411,53.2139,218.7902,8.1827,123.0069,-0.00041439,-0.00058535,0.0,0 STARLINK-4294,1 53176U 22083AW  22236.58334491 -.00058535  00000-0 -41439-3 0  9991,2 53176  53.2139 218.7902 0003411   8.1827 123.0069 15.73255020  6637,6727.738,91.53,351.898,347.30800000000005,0.0
53176.0,STARLINK-4294,PAYLOAD,2022-08-24 22:00:00,15.73192311,0.0003211,53.2141,217.1391,8.3486,211.8197,0.00013021,0.00017688,0.0,0 STARLINK-4294,1 53176U 22083AW  22236.91667824  .00017688  00000-0  13021-3 0  9995,2 53176  53.2141 217.1391 0003211   8.3486 211.8197 15.73192311  1306,6727.917,91.534,351.94199999999995,347.622,0.0
53176.0,STARLINK-4294,PAYLOAD,2022-08-25 06:00:02,15.73195161,0.0003478999999999,53.2138,215.4915,8.908999999999997,300.2498,0.00013282,0.00018059,0.0,0 STARLINK-4294,1 53176U 22083AW  22237.25002315  .00018059  00000-0  13282-3 0  9993,2 53176  53.2138 215.4915 0003479   8.9090 300.2498 15.73195161  6733,6727.909000000002,91.533,352.115,347.43300000000005,0.0
53176.0,STARLINK-4294,PAYLOAD,2022-08-25 12:00:00,15.7320754,0.0003198999999999,53.217,214.2465,3.033,282.7173,-3.5022e-05,-5.538e-05,0.0,0 STARLINK-4294,1 53176U 22083AW  22237.50001157 -.00005538  00000-0 -35022-4 0  9991,2 53176  53.2170 214.2465 0003199   3.0330 282.7173 15.73207540  6771,6727.874,91.533,351.891,347.586,0.0
53176.0,STARLINK-4294,PAYLOAD,2022-08-25 14:00:01,15.73204199,0.0003131,53.2172,213.8332,3.5701,34.4159,1.7326e-06,-3.8e-06,0.0,0 STARLINK-4294,1 53176U 22083AW  22237.58334491 -.00000380  00000-0  17326-5 0  9996,2 53176  53.2172 213.8332 0003131   3.5701  34.4159 15.73204199  1301,6727.8830000000025,91.533,351.855,347.642,0.0
53176.0,STARLINK-4294,PAYLOAD,2022-08-25 18:00:00,15.73205915,0.0003232,53.2136,213.0154,8.5648,253.9386,0.00035613,0.00049678,0.0,0 STARLINK-4294,1 53176U 22083AW  22237.75001157  .00049678  00000-0  35613-3 0  9994,2 53176  53.2136 213.0154 0003232   8.5648 253.9386 15.73205915  6810,6727.878000000002,91.533,351.918,347.569,0.0
53176.0,STARLINK-4294,PAYLOAD,2022-08-25 22:00:00,15.73248164,0.0003143,53.2138,212.1903,9.9638,117.0071,-0.00018177,-0.00026114,0.0,0 STARLINK-4294,1 53176U 22083AW  22237.91667824 -.00026114  00000-0 -18177-3 0  9999,2 53176  53.2138 212.1903 0003143   9.9638 117.0071 15.73248164  1302,6727.7580000000025,91.53,351.737,347.5080000000001,0.0
53176.0,STARLINK-4294,PAYLOAD,2022-08-26 06:00:00,15.73198052,0.0003426,53.214,210.5428,7.4115,208.5412,7.2305e-05,9.538e-05,0.0,0 STARLINK-4294,1 53176U 22083AW  22238.25001157  .00009538  00000-0  72305-4 0  9991,2 53176  53.2140 210.5428 0003426   7.4115 208.5412 15.73198052  6890,6727.901,91.533,352.071,347.461,0.0
53176.0,STARLINK-4294,PAYLOAD,2022-08-26 14:00:01,15.73232408,0.0003373,53.2142,208.8921,7.8502,297.0959,-7.874600000000001e-05,-0.00011679,0.0,0 STARLINK-4294,1 53176U 22083AW  22238.58335648 -.00011679  00000-0 -78746-4 0  9998,2 53176  53.2142 208.8921 0003373   7.8502 297.0959 15.73232408  1309,6727.803000000001,91.531,351.93699999999984,347.398,0.0
53176.0,STARLINK-4294,PAYLOAD,2022-08-26 22:00:00,15.73240627,0.0003273999999999,53.2146,207.2415,12.7588,21.0797,-0.00036551,-0.00051711,0.0,0 STARLINK-4294,1 53176U 22083AW  22238.91667824 -.00051711  00000-0 -36551-3 0  9997,2 53176  53.2146 207.2415 0003274  12.7588  21.0797 15.73240627  1300,6727.779,91.531,351.847,347.44199999999995,0.0
53176.0,STARLINK-4294,PAYLOAD,2022-08-27 14:00:01,15.73226703,0.0003369,53.214,203.9432,12.6304,199.106,-0.00057709,-0.0008096,0.0,0 STARLINK-4294,1 53176U 22083AW  22239.58334491 -.00080960  00000-0 -57709-3 0  9998,2 53176  53.2140 203.9432 0003369  12.6304 199.1060 15.73226703  1305,6727.819,91.532,351.951,347.417,0.0
